STARLINK-1846
1 27136C 20088Q   21325.15592732  .00002146  00000-0  14385-3 0  3256
2 27136  53.0526 147.5242 0001493  71.9298 182.8169 15.06383874    13
